RADFXSAT (FOX-1B)       
1 43017U 17073E   26068.59518419  .00011352  00000+0  51457-3 0  9993
2 43017  97.4852 297.8938 0154575 312.4525  46.3719 15.10873817450344
STARLINK-31713          
1 59381U 24062H   26068.82145724  .00000273  00000+0  21351-4 0  9992
2 59381  53.1586 257.7442 0001073 110.8629 249.2487 15.30190826109613
